[{"OBJECT_NAME":"JILIN-1 GAOFEN 3D03","OBJECT_ID":"2021-061D","EPOCH":"2026-03-09T16:24:01.846080","MEAN_MOTION":15.79996528,"ECCENTRICITY":0.00020696,"INCLINATION":97.3014,"RA_OF_ASC_NODE":145.6831,"ARG_OF_PERICENTER":139.5551,"MEAN_ANOMALY":220.5871,"EPHEMERIS_TYPE":0,"CLASSIFICATION_TYPE":"U","NORAD_CAT_ID":49006,"ELEMENT_SET_NO":999,"REV_AT_EPOCH":26054,"BSTAR":0.0011006252,"MEAN_MOTION_DOT":0.00207903,"MEAN_MOTION_DDOT":0},{"OBJECT_NAME":"STARLINK-36246","OBJECT_ID":"2026-037H","EPOCH":"2026-03-09T22:00:01.999584","MEAN_MOTION":15.81971937,"ECCENTRICITY":0.00020912,"INCLINATION":42.9986,"RA_OF_ASC_NODE":197.1125,"ARG_OF_PERICENTER":287.0655,"MEAN_ANOMALY":228.8146,"EPHEMERIS_TYPE":0,"CLASSIFICATION_TYPE":"U","NORAD_CAT_ID":67939,"ELEMENT_SET_NO":999,"REV_AT_EPOCH":314,"BSTAR":0.00050431406,"MEAN_MOTION_DOT":0.00106759,"MEAN_MOTION_DDOT":0}]
